start=new Date('2023-05-06T00:00:00.000Z').valueOf();
sats=[{"CENTER_NAME":"EARTH","EPHEMERIS_TYPE":"0","MEAN_ANOMALY":"282.8919","CLASSIFICATION_TYPE":"U","NORAD_CAT_ID":"53790","OBJECT_ID":"2022-111T","APOAPSIS":"540.103","ELEMENT_SET_NO":"999","RA_OF_ASC_NODE":"258.5639","OBJECT_NAME":"STARLINK-4734","COUNTRY_CODE":"US","REF_FRAME":"TEME","LAUNCH_DATE":"2022-09-11","DECAY_DATE":null,"PERIAPSIS":"539.335","PERIOD":"95.437","GP_ID":"231288348","MEAN_MOTION_DDOT":"0.0000000000000","EPOCH":"2023-05-05T14:52:48.486432","SITE":"AFETR","BSTAR":"0.00029732000000","MEAN_MOTION_DOT":"0.00004448","RCS_SIZE":"LARGE","FILE":"3901696","SEMIMAJOR_AXIS":"6917.854","TLE_LINE2":"2 53790  53.2152 258.5639 0000555  77.2135 282.8919 15.08848680 36020","MEAN_MOTION":"15.08848680","TLE_LINE1":"1 53790U 22111T   23125.62000563  .00004448  00000-0  29732-3 0  9992","ECCENTRICITY":"0.00005550","MEAN_ELEMENT_THEORY":"SGP4","REV_AT_EPOCH":"3602","INCLINATION":"53.2152","OBJECT_TYPE":"PAYLOAD","ARG_OF_PERICENTER":"77.2135","TIME_SYSTEM":"UTC"},{"RA_OF_ASC_NODE":"258.2223","ELEMENT_SET_NO":"999","CLASSIFICATION_TYPE":"U","MEAN_ANOMALY":"296.0948","OBJECT_ID":"2022-111V","NORAD_CAT_ID":"53792","APOAPSIS":"539.999","CENTER_NAME":"EARTH","EPHEMERIS_TYPE":"0","PERIAPSIS":"539.473","REF_FRAME":"TEME","LAUNCH_DATE":"2022-09-11","DECAY_DATE":null,"OBJECT_NAME":"STARLINK-4739","COUNTRY_CODE":"US","TLE_LINE2":"2 53792  53.2155 258.2223 0000380  64.0084 296.0948 15.08842952 36030","MEAN_MOTION":"15.08842952","TLE_LINE1":"1 53792U 22111V   23125.67887490  .00001782  00000-0  13001-3 0  9991","ECCENTRICITY":"0.00003800","EPOCH":"2023-05-05T16:17:34.791360","MEAN_MOTION_DDOT":"0.0000000000000","MEAN_MOTION_DOT":"0.00001782","SITE":"AFETR","BSTAR":"0.00013001000000","SEMIMAJOR_AXIS":"6917.871","FILE":"3901961","RCS_SIZE":"LARGE","PERIOD":"95.437","GP_ID":"231294772","ARG_OF_PERICENTER":"64.0084","TIME_SYSTEM":"UTC","INCLINATION":"53.2155","OBJECT_TYPE":"PAYLOAD","MEAN_ELEMENT_THEORY":"SGP4","REV_AT_EPOCH":"3603"},{"DECAY_DATE":null,"REF_FRAME":"TEME","LAUNCH_DATE":"2022-09-11","COUNTRY_CODE":"US","OBJECT_NAME":"STARLINK-4728","PERIAPSIS":"539.582","APOAPSIS":"539.895","MEAN_ANOMALY":"296.4543","CLASSIFICATION_TYPE":"U","NORAD_CAT_ID":"53793","OBJECT_ID":"2022-111W","EPHEMERIS_TYPE":"0","CENTER_NAME":"EARTH","ELEMENT_SET_NO":"999","RA_OF_ASC_NODE":"259.3911","OBJECT_TYPE":"PAYLOAD","INCLINATION":"53.2165","MEAN_ELEMENT_THEORY":"SGP4","REV_AT_EPOCH":"3599","ARG_OF_PERICENTER":"63.6472","TIME_SYSTEM":"UTC","GP_ID":"231282775","PERIOD":"95.437","ECCENTRICITY":"0.00002260","TLE_LINE2":"2 53793  53.2165 259.3911 0000226  63.6472 296.4543 15.08842316 35996","MEAN_MOTION":"15.08842316","TLE_LINE1":"1 53793U 22111W   23125.41118701  .00003035  00000-0  20867-3 0  9997","FILE":"3901464","RCS_SIZE":"LARGE","SEMIMAJOR_AXIS":"6917.873","EPOCH":"2023-05-05T09:52:06.557664","MEAN_MOTION_DDOT":"0.0000000000000","BSTAR":"0.00020867000000","SITE":"AFETR","MEAN_MOTION_DOT":"0.00003035"},{"ECCENTRICITY":"0.00009860","TLE_LINE2":"2 53794  53.2145 256.8277 0000986  89.4836 190.6717 15.08842279 36071","MEAN_MOTION":"15.08842279","TLE_LINE1":"1 53794U 22111X   23126.00001157 -.00014286  00000-0 -88125-3 0  9993","SEMIMAJOR_AXIS":"6917.873","FILE":"3901961","RCS_SIZE":"LARGE","MEAN_MOTION_DDOT":"0.0000000000000","EPOCH":"2023-05-06T00:00:00.999648","SITE":"AFETR","BSTAR":"-0.00088125000000","MEAN_MOTION_DOT":"-0.00014286","GP_ID":"231294724","PERIOD":"95.437","ARG_OF_PERICENTER":"89.4836","TIME_SYSTEM":"UTC","OBJECT_TYPE":"PAYLOAD","INCLINATION":"53.2145","REV_AT_EPOCH":"3607","MEAN_ELEMENT_THEORY":"SGP4","RA_OF_ASC_NODE":"256.8277","ELEMENT_SET_NO":"999","APOAPSIS":"540.421","MEAN_ANOMALY":"190.6717","CLASSIFICATION_TYPE":"U","OBJECT_ID":"2022-111X","NORAD_CAT_ID":"53794","EPHEMERIS_TYPE":"0","CENTER_NAME":"EARTH","PERIAPSIS":"539.056","DECAY_DATE":null,"REF_FRAME":"TEME","LAUNCH_DATE":"2022-09-11","COUNTRY_CODE":"US","OBJECT_NAME":"STARLINK-4730"},{"MEAN_MOTION_DDOT":"0.0000000000000","EPOCH":"2023-05-05T09:40:07.798656","SITE":"AFETR","BSTAR":"0.00004285100000","MEAN_MOTION_DOT":"0.00000394","SEMIMAJOR_AXIS":"6917.902","FILE":"3901453","RCS_SIZE":"LARGE","TLE_LINE1":"1 53795U 22111Y   23125.40286804  .00000394  00000-0  42851-4 0  9991","TLE_LINE2":"2 53795  53.2188 259.3483 0001235 102.2899 257.8231 15.08832832 35998","MEAN_MOTION":"15.08832832","ECCENTRICITY":"0.00012350","PERIOD":"95.438","GP_ID":"231282972","ARG_OF_PERICENTER":"102.2899","TIME_SYSTEM":"UTC","REV_AT_EPOCH":"3599","MEAN_ELEMENT_THEORY":"SGP4","INCLINATION":"53.2188","OBJECT_TYPE":"PAYLOAD","RA_OF_ASC_NODE":"259.3483","ELEMENT_SET_NO":"999","CENTER_NAME":"EARTH","EPHEMERIS_TYPE":"0","CLASSIFICATION_TYPE":"U","MEAN_ANOMALY":"257.8231","NORAD_CAT_ID":"53795","OBJECT_ID":"2022-111Y","APOAPSIS":"540.622","PERIAPSIS":"538.913","OBJECT_NAME":"STARLINK-4742","COUNTRY_CODE":"US","REF_FRAME":"TEME","LAUNCH_DATE":"2022-09-11","DECAY_DATE":null},{"OBJECT_TYPE":"PAYLOAD","INCLINATION":"53.2171","REV_AT_EPOCH":"3629","MEAN_ELEMENT_THEORY":"SGP4","ARG_OF_PERICENTER":"89.8058","TIME_SYSTEM":"UTC","GP_ID":"231249467","PERIOD":"95.439","ECCENTRICITY":"0.00014360","TLE_LINE1":"1 53796U 22111Z   23125.01093015  .00002140  00000-0  15260-3 0  9993","TLE_LINE2":"2 53796  53.2171 241.0861 0001436  89.8058 270.3098 15.08822757 36299","MEAN_MOTION":"15.08822757","SEMIMAJOR_AXIS":"6917.933","FILE":"3901184","RCS_SIZE":"LARGE","MEAN_MOTION_DDOT":"0.0000000000000","EPOCH":"2023-05-05T00:15:44.364960","MEAN_MOTION_DOT":"0.00002140","SITE":"AFETR","BSTAR":"0.00015260000000","DECAY_DATE":null,"REF_FRAME":"TEME","LAUNCH_DATE":"2022-09-11","COUNTRY_CODE":"US","OBJECT_NAME":"STARLINK-4721","PERIAPSIS":"538.805","APOAPSIS":"540.792","CLASSIFICATION_TYPE":"U","MEAN_ANOMALY":"270.3098","OBJECT_ID":"2022-111Z","NORAD_CAT_ID":"53796","EPHEMERIS_TYPE":"0","CENTER_NAME":"EARTH","ELEMENT_SET_NO":"999","RA_OF_ASC_NODE":"241.0861"},{"TIME_SYSTEM":"UTC","ARG_OF_PERICENTER":"97.2581","MEAN_ELEMENT_THEORY":"SGP4","REV_AT_EPOCH":"3599","OBJECT_TYPE":"PAYLOAD","INCLINATION":"53.2183","RCS_SIZE":"LARGE","FILE":"3901465","SEMIMAJOR_AXIS":"6917.887","SITE":"AFETR","MEAN_MOTION_DOT":"0.00001351","BSTAR":"0.00010297000000","EPOCH":"2023-05-05T09:24:12.501504","MEAN_MOTION_DDOT":"0.0000000000000","ECCENTRICITY":"0.00005920","TLE_LINE2":"2 53797  53.2183 259.2732 0000592  97.2581 262.8478 15.08837802 35998","MEAN_MOTION":"15.08837802","TLE_LINE1":"1 53797U 22111AA  23125.39181136  .00001351  00000-0  10297-3 0  9995","GP_ID":"231283132","PERIOD":"95.438","PERIAPSIS":"539.343","COUNTRY_CODE":"US","OBJECT_NAME":"STARLINK-4723","DECAY_DATE":null,"LAUNCH_DATE":"2022-09-11","REF_FRAME":"TEME","RA_OF_ASC_NODE":"259.2732","ELEMENT_SET_NO":"999","EPHEMERIS_TYPE":"0","CENTER_NAME":"EARTH","APOAPSIS":"540.162","NORAD_CAT_ID":"53797","OBJECT_ID":"2022-111AA","CLASSIFICATION_TYPE":"U","MEAN_ANOMALY":"262.8478"},{"OBJECT_ID":"2022-111AB","NORAD_CAT_ID":"53798","CLASSIFICATION_TYPE":"U","MEAN_ANOMALY":"281.4947","APOAPSIS":"540.203","CENTER_NAME":"EARTH","EPHEMERIS_TYPE":"0","ELEMENT_SET_NO":"999","RA_OF_ASC_NODE":"259.3018","LAUNCH_DATE":"2022-09-11","REF_FRAME":"TEME","DECAY_DATE":null,"OBJECT_NAME":"STARLINK-4712","COUNTRY_CODE":"US","PERIAPSIS":"539.338","PERIOD":"95.438","GP_ID":"231282730","MEAN_MOTION":"15.08831905","TLE_LINE2":"2 53798  53.2188 259.3018 0000625  78.6115 281.4947 15.08831905 35979","TLE_LINE1":"1 53798U 22111AB  23125.39549652  .00001646  00000-0  12150-3 0  9994","ECCENTRICITY":"0.00006250","SITE":"AFETR","MEAN_MOTION_DOT":"0.00001646","BSTAR":"0.00012150000000","EPOCH":"2023-05-05T09:29:30.899328","MEAN_MOTION_DDOT":"0.0000000000000","FILE":"3901453","SEMIMAJOR_AXIS":"6917.905","RCS_SIZE":"LARGE","INCLINATION":"53.2188","OBJECT_TYPE":"PAYLOAD","REV_AT_EPOCH":"3597","MEAN_ELEMENT_THEORY":"SGP4","TIME_SYSTEM":"UTC","ARG_OF_PERICENTER":"78.6115"},{"GP_ID":"231288360","PERIOD":"95.438","ECCENTRICITY":"0.00007610","TLE_LINE1":"1 53799U 22111AC  23125.62093454 -.00000067  00000-0  13863-4 0  9995","TLE_LINE2":"2 53799  53.2159 248.5868 0000761  75.5732 284.5344 15.08833973 36145","MEAN_MOTION":"15.08833973","FILE":"3901697","RCS_SIZE":"LARGE","SEMIMAJOR_AXIS":"6917.899","EPOCH":"2023-05-05T14:54:08.744256","MEAN_MOTION_DDOT":"0.0000000000000","SITE":"AFETR","MEAN_MOTION_DOT":"-0.00000067","BSTAR":"0.00001386300000","OBJECT_TYPE":"PAYLOAD","INCLINATION":"53.2159","MEAN_ELEMENT_THEORY":"SGP4","REV_AT_EPOCH":"3614","ARG_OF_PERICENTER":"75.5732","TIME_SYSTEM":"UTC","APOAPSIS":"540.290","MEAN_ANOMALY":"284.5344","CLASSIFICATION_TYPE":"U","OBJECT_ID":"2022-111AC","NORAD_CAT_ID":"53799","EPHEMERIS_TYPE":"0","CENTER_NAME":"EARTH","ELEMENT_SET_NO":"999","RA_OF_ASC_NODE":"248.5868","DECAY_DATE":null,"REF_FRAME":"TEME","LAUNCH_DATE":"2022-09-11","COUNTRY_CODE":"US","OBJECT_NAME":"STARLINK-4710","PERIAPSIS":"539.237"},{"ECCENTRICITY":"0.00011950","TLE_LINE2":"2 53800  53.2156 249.7991 0001195  89.8936 270.2193 15.08831082 36100","MEAN_MOTION":"15.08831082","TLE_LINE1":"1 53800U 22111AD  23125.35965463  .00000175  00000-0  29075-4 0  9997","FILE":"3901464","RCS_SIZE":"LARGE","SEMIMAJOR_AXIS":"6917.908","SITE":"AFETR","MEAN_MOTION_DOT":"0.00000175","BSTAR":"0.00002907500000","EPOCH":"2023-05-05T08:37:54.160032","MEAN_MOTION_DDOT":"0.0000000000000","GP_ID":"231283009","PERIOD":"95.438","TIME_SYSTEM":"UTC","ARG_OF_PERICENTER":"89.8936","OBJECT_TYPE":"PAYLOAD","INCLINATION":"53.2156","MEAN_ELEMENT_THEORY":"SGP4","REV_AT_EPOCH":"3610","RA_OF_ASC_NODE":"249.7991","ELEMENT_SET_NO":"999","APOAPSIS":"540.599","NORAD_CAT_ID":"53800","OBJECT_ID":"2022-111AD","MEAN_ANOMALY":"270.2193","CLASSIFICATION_TYPE":"U","EPHEMERIS_TYPE":"0","CENTER_NAME":"EARTH","PERIAPSIS":"538.946","DECAY_DATE":null,"LAUNCH_DATE":"2022-09-11","REF_FRAME":"TEME","COUNTRY_CODE":"US","OBJECT_NAME":"STARLINK-4720"}];
